STARLINK-35775          
1 67038U 25294J   25364.25002315 -.00087856  00000+0 -15068-2 0  9991
2 67038  43.0001  75.9854 0001207 259.9606  75.2070 15.50612468  3034
STARLINK-35705          
1 67039U 25294K   25364.25002315 -.00068984  00000+0 -11800-2 0  9993
2 67039  43.0003  75.9765 0001105 263.7972  75.2264 15.50588510  2915
STARLINK-35786          
1 67040U 25294L   25364.25002315 -.00075296  00000+0 -12889-2 0  9997
2 67040  43.0001  75.9810 0001490 268.9165  68.1778 15.50602950  2910
STARLINK-35765          
1 67041U 25294M   25364.25002315 -.00069155  00000+0 -11830-2 0  9990
2 67041  43.0003  75.9721 0001109 263.0096  77.9281 15.50589819  2915
STARLINK-35773          
1 67042U 25294N   25364.25002315 -.00030726  00000+0 -52016-3 0  9995
2 67042  43.0002  75.9668 0001146 266.0285  76.8313 15.50569731  3117
STARLINK-35901          
1 67043U 25294P   25364.25002315 -.00046230  00000+0 -78684-3 0  9992
2 67043  43.0000  75.9620 0001151 258.2754  86.4966 15.50579690  3110
STARLINK-35884          
1 67044U 25294Q   25364.25002315  .00028735  00000+0  49402-3 0  9997
2 67044  43.0002  75.9573 0001074 265.9478  80.7314 15.50568225  3118
STARLINK-35891          
1 67045U 25294R   25364.25002315 -.00023155  00000+0 -39027-3 0  9993
2 67045  43.0002  75.9522 0001334 267.4360  81.1848 15.50562409  3035
STARLINK-35721          
1 67046U 25294S   25364.25002315 -.00015578  00000+0 -26038-3 0  9992
2 67046  43.0002  75.9475 0001598 261.6721  88.8589 15.50562751  3117
STARLINK-35779          
1 67047U 25294T   25364.25002315 -.00085670  00000+0 -14689-2 0  9991
2 67047  43.0002  75.9426 0001225 261.8645  90.5645 15.50609426  2919
STARLINK-35905          
1 67048U 25294U   25364.25002315 -.00017395  00000+0 -29152-3 0  9993
2 67048  43.0003  75.9383 0001294 265.8603  88.5065 15.50561883  3038
STARLINK-35877          
1 67049U 25294V   25364.25002315  .00020049  00000+0  34702-3 0  9999
2 67049  43.0004  75.9332 0001200 297.8833  58.3702 15.50552243  3113
