CCSDS_OMM_VERS = 2.0
CREATION_DATE  = 
ORIGINATOR     = 

OBJECT_NAME    = STARLINK-35775
OBJECT_ID      = 2025-294J
CENTER_NAME    = EARTH
REF_FRAME      = TEME
TIME_SYSTEM    = UTC
MEAN_ELEMENT_THEORY = SGP/SGP4

EPOCH          = 2025-12-30T06:00:02.000160
MEAN_MOTION    = 15.50612468
ECCENTRICITY   = .00012074
INCLINATION    = 43.0001
RA_OF_ASC_NODE = 75.9854
ARG_OF_PERICENTER = 259.9606
MEAN_ANOMALY   = 75.2070

EPHEMERIS_TYPE = 0
CLASSIFICATION_TYPE = U
NORAD_CAT_ID   = 67038
ELEMENT_SET_NO = 999
REV_AT_EPOCH   = 303
BSTAR          = -.15068087E-2
MEAN_MOTION_DOT = -.87856E-3
MEAN_MOTION_DDOT = 0

CCSDS_OMM_VERS = 2.0
CREATION_DATE  = 
ORIGINATOR     = 

OBJECT_NAME    = STARLINK-35705
OBJECT_ID      = 2025-294K
CENTER_NAME    = EARTH
REF_FRAME      = TEME
TIME_SYSTEM    = UTC
MEAN_ELEMENT_THEORY = SGP/SGP4

EPOCH          = 2025-12-30T06:00:02.000160
MEAN_MOTION    = 15.50588510
ECCENTRICITY   = .00011056
INCLINATION    = 43.0003
RA_OF_ASC_NODE = 75.9765
ARG_OF_PERICENTER = 263.7972
MEAN_ANOMALY   = 75.2264

EPHEMERIS_TYPE = 0
CLASSIFICATION_TYPE = U
NORAD_CAT_ID   = 67039
ELEMENT_SET_NO = 999
REV_AT_EPOCH   = 291
BSTAR          = -.11800457E-2
MEAN_MOTION_DOT = -.68984E-3
MEAN_MOTION_DDOT = 0

CCSDS_OMM_VERS = 2.0
CREATION_DATE  = 
ORIGINATOR     = 

OBJECT_NAME    = STARLINK-35786
OBJECT_ID      = 2025-294L
CENTER_NAME    = EARTH
REF_FRAME      = TEME
TIME_SYSTEM    = UTC
MEAN_ELEMENT_THEORY = SGP/SGP4

EPOCH          = 2025-12-30T06:00:02.000160
MEAN_MOTION    = 15.50602950
ECCENTRICITY   = .00014907
INCLINATION    = 43.0001
RA_OF_ASC_NODE = 75.9810
ARG_OF_PERICENTER = 268.9165
MEAN_ANOMALY   = 68.1778

EPHEMERIS_TYPE = 0
CLASSIFICATION_TYPE = U
NORAD_CAT_ID   = 67040
ELEMENT_SET_NO = 999
REV_AT_EPOCH   = 291
BSTAR          = -.12888913E-2
MEAN_MOTION_DOT = -.75296E-3
MEAN_MOTION_DDOT = 0

CCSDS_OMM_VERS = 2.0
CREATION_DATE  = 
ORIGINATOR     = 

OBJECT_NAME    = STARLINK-35765
OBJECT_ID      = 2025-294M
CENTER_NAME    = EARTH
REF_FRAME      = TEME
TIME_SYSTEM    = UTC
MEAN_ELEMENT_THEORY = SGP/SGP4

EPOCH          = 2025-12-30T06:00:02.000160
MEAN_MOTION    = 15.50589819
ECCENTRICITY   = .00011092
INCLINATION    = 43.0003
RA_OF_ASC_NODE = 75.9721
ARG_OF_PERICENTER = 263.0096
MEAN_ANOMALY   = 77.9281

EPHEMERIS_TYPE = 0
CLASSIFICATION_TYPE = U
NORAD_CAT_ID   = 67041
ELEMENT_SET_NO = 999
REV_AT_EPOCH   = 291
BSTAR          = -.1182965E-2
MEAN_MOTION_DOT = -.69155E-3
MEAN_MOTION_DDOT = 0

CCSDS_OMM_VERS = 2.0
CREATION_DATE  = 
ORIGINATOR     = 

OBJECT_NAME    = STARLINK-35773
OBJECT_ID      = 2025-294N
CENTER_NAME    = EARTH
REF_FRAME      = TEME
TIME_SYSTEM    = UTC
MEAN_ELEMENT_THEORY = SGP/SGP4

EPOCH          = 2025-12-30T06:00:02.000160
MEAN_MOTION    = 15.50569731
ECCENTRICITY   = .00011467
INCLINATION    = 43.0002
RA_OF_ASC_NODE = 75.9668
ARG_OF_PERICENTER = 266.0285
MEAN_ANOMALY   = 76.8313

EPHEMERIS_TYPE = 0
CLASSIFICATION_TYPE = U
NORAD_CAT_ID   = 67042
ELEMENT_SET_NO = 999
REV_AT_EPOCH   = 311
BSTAR          = -.52015893E-3
MEAN_MOTION_DOT = -.30726E-3
MEAN_MOTION_DDOT = 0

CCSDS_OMM_VERS = 2.0
CREATION_DATE  = 
ORIGINATOR     = 

OBJECT_NAME    = STARLINK-35901
OBJECT_ID      = 2025-294P
CENTER_NAME    = EARTH
REF_FRAME      = TEME
TIME_SYSTEM    = UTC
MEAN_ELEMENT_THEORY = SGP/SGP4

EPOCH          = 2025-12-30T06:00:02.000160
MEAN_MOTION    = 15.50579690
ECCENTRICITY   = .00011512
INCLINATION    = 43.0000
RA_OF_ASC_NODE = 75.9620
ARG_OF_PERICENTER = 258.2754
MEAN_ANOMALY   = 86.4966

EPHEMERIS_TYPE = 0
CLASSIFICATION_TYPE = U
NORAD_CAT_ID   = 67043
ELEMENT_SET_NO = 999
REV_AT_EPOCH   = 311
BSTAR          = -.78683821E-3
MEAN_MOTION_DOT = -.4623E-3
MEAN_MOTION_DDOT = 0

CCSDS_OMM_VERS = 2.0
CREATION_DATE  = 
ORIGINATOR     = 

OBJECT_NAME    = STARLINK-35884
OBJECT_ID      = 2025-294Q
CENTER_NAME    = EARTH
REF_FRAME      = TEME
TIME_SYSTEM    = UTC
MEAN_ELEMENT_THEORY = SGP/SGP4

EPOCH          = 2025-12-30T06:00:02.000160
MEAN_MOTION    = 15.50568225
ECCENTRICITY   = .0001074
INCLINATION    = 43.0002
RA_OF_ASC_NODE = 75.9573
ARG_OF_PERICENTER = 265.9478
MEAN_ANOMALY   = 80.7314

EPHEMERIS_TYPE = 0
CLASSIFICATION_TYPE = U
NORAD_CAT_ID   = 67044
ELEMENT_SET_NO = 999
REV_AT_EPOCH   = 311
BSTAR          = .49402456E-3
MEAN_MOTION_DOT = .28735E-3
MEAN_MOTION_DDOT = 0

CCSDS_OMM_VERS = 2.0
CREATION_DATE  = 
ORIGINATOR     = 

OBJECT_NAME    = STARLINK-35891
OBJECT_ID      = 2025-294R
CENTER_NAME    = EARTH
REF_FRAME      = TEME
TIME_SYSTEM    = UTC
MEAN_ELEMENT_THEORY = SGP/SGP4

EPOCH          = 2025-12-30T06:00:02.000160
MEAN_MOTION    = 15.50562409
ECCENTRICITY   = .00013341
INCLINATION    = 43.0002
RA_OF_ASC_NODE = 75.9522
ARG_OF_PERICENTER = 267.4360
MEAN_ANOMALY   = 81.1848

EPHEMERIS_TYPE = 0
CLASSIFICATION_TYPE = U
NORAD_CAT_ID   = 67045
ELEMENT_SET_NO = 999
REV_AT_EPOCH   = 303
BSTAR          = -.39026507E-3
MEAN_MOTION_DOT = -.23155E-3
MEAN_MOTION_DDOT = 0

CCSDS_OMM_VERS = 2.0
CREATION_DATE  = 
ORIGINATOR     = 

OBJECT_NAME    = STARLINK-35721
OBJECT_ID      = 2025-294S
CENTER_NAME    = EARTH
REF_FRAME      = TEME
TIME_SYSTEM    = UTC
MEAN_ELEMENT_THEORY = SGP/SGP4

EPOCH          = 2025-12-30T06:00:02.000160
MEAN_MOTION    = 15.50562751
ECCENTRICITY   = .00015982
INCLINATION    = 43.0002
RA_OF_ASC_NODE = 75.9475
ARG_OF_PERICENTER = 261.6721
MEAN_ANOMALY   = 88.8589

EPHEMERIS_TYPE = 0
CLASSIFICATION_TYPE = U
NORAD_CAT_ID   = 67046
ELEMENT_SET_NO = 999
REV_AT_EPOCH   = 311
BSTAR          = -.26037952E-3
MEAN_MOTION_DOT = -.15578E-3
MEAN_MOTION_DDOT = 0

CCSDS_OMM_VERS = 2.0
CREATION_DATE  = 
ORIGINATOR     = 

OBJECT_NAME    = STARLINK-35779
OBJECT_ID      = 2025-294T
CENTER_NAME    = EARTH
REF_FRAME      = TEME
TIME_SYSTEM    = UTC
MEAN_ELEMENT_THEORY = SGP/SGP4

EPOCH          = 2025-12-30T06:00:02.000160
MEAN_MOTION    = 15.50609426
ECCENTRICITY   = .00012253
INCLINATION    = 43.0002
RA_OF_ASC_NODE = 75.9426
ARG_OF_PERICENTER = 261.8645
MEAN_ANOMALY   = 90.5645

EPHEMERIS_TYPE = 0
CLASSIFICATION_TYPE = U
NORAD_CAT_ID   = 67047
ELEMENT_SET_NO = 999
REV_AT_EPOCH   = 291
BSTAR          = -.14689172E-2
MEAN_MOTION_DOT = -.8567E-3
MEAN_MOTION_DDOT = 0

CCSDS_OMM_VERS = 2.0
CREATION_DATE  = 
ORIGINATOR     = 

OBJECT_NAME    = STARLINK-35905
OBJECT_ID      = 2025-294U
CENTER_NAME    = EARTH
REF_FRAME      = TEME
TIME_SYSTEM    = UTC
MEAN_ELEMENT_THEORY = SGP/SGP4

EPOCH          = 2025-12-30T06:00:02.000160
MEAN_MOTION    = 15.50561883
ECCENTRICITY   = .0001294
INCLINATION    = 43.0003
RA_OF_ASC_NODE = 75.9383
ARG_OF_PERICENTER = 265.8603
MEAN_ANOMALY   = 88.5065

EPHEMERIS_TYPE = 0
CLASSIFICATION_TYPE = U
NORAD_CAT_ID   = 67048
ELEMENT_SET_NO = 999
REV_AT_EPOCH   = 303
BSTAR          = -.29152285E-3
MEAN_MOTION_DOT = -.17395E-3
MEAN_MOTION_DDOT = 0

CCSDS_OMM_VERS = 2.0
CREATION_DATE  = 
ORIGINATOR     = 

OBJECT_NAME    = STARLINK-35877
OBJECT_ID      = 2025-294V
CENTER_NAME    = EARTH
REF_FRAME      = TEME
TIME_SYSTEM    = UTC
MEAN_ELEMENT_THEORY = SGP/SGP4

EPOCH          = 2025-12-30T06:00:02.000160
MEAN_MOTION    = 15.50552243
ECCENTRICITY   = .00012007
INCLINATION    = 43.0004
RA_OF_ASC_NODE = 75.9332
ARG_OF_PERICENTER = 297.8833
MEAN_ANOMALY   = 58.3702

EPHEMERIS_TYPE = 0
CLASSIFICATION_TYPE = U
NORAD_CAT_ID   = 67049
ELEMENT_SET_NO = 999
REV_AT_EPOCH   = 311
BSTAR          = .34701653E-3
MEAN_MOTION_DOT = .20049E-3
MEAN_MOTION_DDOT = 0

